52334,STARLINK-3880,2022,95.44,260.0,+,53.22,Active,1,LEO,USA,USA,Commercial,Communications,Falcon,1 52334U 22045D   25251.15245200 -.00000752  00000+0 -29169-4 0  9990,2 52334  53.2179 308.5649 0001450  86.9931 273.1227 15.08842742188076,15.08842742,0.000145,LEO
52335,STARLINK-3814,2022,95.44,260.0,+,53.22,Active,1,LEO,USA,USA,Commercial,Communications,Falcon,1 52335U 22045E   25251.14877551 -.00000453  00000+0 -10355-4 0  9995,2 52335  53.2177 308.5817 0001288  87.0505 273.0635 15.08836482188087,15.08836482,0.0001288,LEO
52336,STARLINK-3823,2022,95.44,260.0,+,53.22,Active,1,LEO,USA,USA,Commercial,Communications,Falcon,1 52336U 22045F   25251.18923581 -.00001354  00000+0 -66995-4 0  9997,2 52336  53.2182 308.1998 0001338  93.3814 266.7331 15.08829540188099,15.0882954,0.0001338,LEO
52337,STARLINK-3797,2022,95.44,260.0,+,53.22,Active,1,LEO,USA,USA,Commercial,Communications,Falcon,1 52337U 22045G   25251.15981522 -.00000107  00000+0  11389-4 0  9995,2 52337  53.2167 308.5335 0001226  90.8176 269.2957 15.08836331188088,15.08836331,0.0001226,LEO
52339,STARLINK-3792,2022,95.44,260.0,+,53.22,Active,1,LEO,USA,USA,Commercial,Communications,Falcon,1 52339U 22045J   25250.90216235  .00000039  00000+0  20558-4 0  9992,2 52339  53.2179 309.3290 0001357  79.7763 280.3383 15.08842829188058,15.08842829,0.0001357,LEO
52340,STARLINK-3818,2022,95.44,260.0,+,53.22,Active,1,LEO,USA,USA,Commercial,Communications,Falcon,1 52340U 22045K   25251.16441728 -.00002188  00000+0 -11940-3 0  9993,2 52340  53.2167 298.5129 0001423  83.1887 276.9268 15.08838062188212,15.08838062,0.0001423,LEO
52341,STARLINK-3843,2022,95.44,260.0,+,53.22,Active,1,LEO,USA,USA,Commercial,Communications,Falcon,1 52341U 22045L   25251.20028918 -.00000006  00000+0  17717-4 0  9996,2 52341  53.2190 308.3050 0001505 103.2924 256.8236 15.08835655188092,15.08835655,0.0001505,LEO
52342,STARLINK-3850,2022,95.44,260.0,+,53.22,Active,1,LEO,USA,USA,Commercial,Communications,Falcon,1 52342U 22045M   25250.83690515 -.00004596  00000+0 -27092-3 0  9998,2 52342  53.2165 300.0992 0001378  76.3095 283.8050 15.08835798188177,15.08835798,0.0001378,LEO
52343,STARLINK-3849,2022,95.44,260.0,+,53.22,Active,1,LEO,USA,USA,Commercial,Communications,Falcon,1 52343U 22045N   25251.17081175  .00003157  00000+0  21615-3 0  9998,2 52343  53.2194 308.4789 0001545  73.7955 286.3208 15.08875721188092,15.08875721,0.0001545,LEO
52344,STARLINK-3851,2022,95.44,260.0,+,53.22,Active,1,LEO,USA,USA,Commercial,Communications,Falcon,1 52344U 22045P   25251.15706694 -.00001115  00000+0 -51980-4 0  9990,2 52344  53.2182 298.6103 0001286  93.8779 266.2360 15.08832244188223,15.08832244,0.0001286,LEO
52345,STARLINK-3852,2022,95.44,260.0,+,53.22,Active,1,LEO,USA,USA,Commercial,Communications,Falcon,1 52345U 22045Q   25250.85258674 -.00000389  00000+0 -63548-5 0  9993,2 52345  53.2180 300.0746 0001353  91.1074 269.0074 15.08837592188164,15.08837592,0.0001353,LEO
52346,STARLINK-3812,2022,95.44,260.0,+,53.22,Active,1,LEO,USA,USA,Commercial,Communications,Falcon,1 52346U 22045R   25251.15064988  .00000293  00000+0  36518-4 0  9999,2 52346  53.2184 298.5804 0001426  92.3958 267.7197 15.08834113188224,15.08834113,0.0001426,LEO
52347,STARLINK-3826,2022,95.44,260.0,+,53.22,Active,1,LEO,USA,USA,Commercial,Communications,Falcon,1 52347U 22045S   25251.16169174  .00000272  00000+0  35177-4 0  9991,2 52347  53.2173 298.5343 0001356  91.3379 268.7769 15.08831308188228,15.08831308,0.0001356,LEO
52348,STARLINK-3829,2022,95.44,260.0,+,53.22,Active,1,LEO,USA,USA,Commercial,Communications,Falcon,1 52348U 22045T   25251.27481572 -.00001300  00000+0 -63632-4 0  9995,2 52348  53.2186 298.0126 0001309  95.4257 264.6885 15.08841377188248,15.08841377,0.0001309,LEO
52349,STARLINK-3819,2022,95.44,260.0,+,53.22,Active,1,LEO,USA,USA,Commercial,Communications,Falcon,1 52349U 22045U   25250.35849174  .00000303  00000+0  37134-4 0  9998,2 52349  53.2174 302.1265 0001276  90.8432 269.2706 15.08840762188109,15.08840762,0.0001276,LEO
52350,STARLINK-3754,2022,95.44,260.0,+,53.22,Active,1,LEO,USA,USA,Commercial,Communications,Falcon,1 52350U 22045V   25251.27113241 -.00003486  00000+0 -20105-3 0  9997,2 52350  53.2172 298.0277 0001502  94.2704 265.8460 15.08842789188242,15.08842789,0.0001502,LEO
