[{"OBJECT_NAME":"STARLINK-3880","OBJECT_ID":"2022-045D","EPOCH":"2025-09-08T03:39:31.852800","MEAN_MOTION":15.08842742,"ECCENTRICITY":0.00014507,"INCLINATION":53.2179,"RA_OF_ASC_NODE":308.5649,"ARG_OF_PERICENTER":86.9931,"MEAN_ANOMALY":273.1227,"EPHEMERIS_TYPE":0,"CLASSIFICATION_TYPE":"U","NORAD_CAT_ID":52334,"ELEMENT_SET_NO":999,"REV_AT_EPOCH":18807,"BSTAR":-2.9168826e-5,"MEAN_MOTION_DOT":-7.52e-6,"MEAN_MOTION_DDOT":0},{"OBJECT_NAME":"STARLINK-3814","OBJECT_ID":"2022-045E","EPOCH":"2025-09-08T03:34:14.204064","MEAN_MOTION":15.08836482,"ECCENTRICITY":0.00012884,"INCLINATION":53.2177,"RA_OF_ASC_NODE":308.5817,"ARG_OF_PERICENTER":87.0505,"MEAN_ANOMALY":273.0635,"EPHEMERIS_TYPE":0,"CLASSIFICATION_TYPE":"U","NORAD_CAT_ID":52335,"ELEMENT_SET_NO":999,"REV_AT_EPOCH":18808,"BSTAR":-1.0355324e-5,"MEAN_MOTION_DOT":-4.53e-6,"MEAN_MOTION_DDOT":0},{"OBJECT_NAME":"STARLINK-3823","OBJECT_ID":"2022-045F","EPOCH":"2025-09-08T04:32:29.973984","MEAN_MOTION":15.0882954,"ECCENTRICITY":0.00013382,"INCLINATION":53.2182,"RA_OF_ASC_NODE":308.1998,"ARG_OF_PERICENTER":93.3814,"MEAN_ANOMALY":266.7331,"EPHEMERIS_TYPE":0,"CLASSIFICATION_TYPE":"U","NORAD_CAT_ID":52336,"ELEMENT_SET_NO":999,"REV_AT_EPOCH":18809,"BSTAR":-6.6994906e-5,"MEAN_MOTION_DOT":-1.354e-5,"MEAN_MOTION_DDOT":0},{"OBJECT_NAME":"STARLINK-3797","OBJECT_ID":"2022-045G","EPOCH":"2025-09-08T03:50:08.035008","MEAN_MOTION":15.08836331,"ECCENTRICITY":0.00012264,"INCLINATION":53.2167,"RA_OF_ASC_NODE":308.5335,"ARG_OF_PERICENTER":90.8176,"MEAN_ANOMALY":269.2957,"EPHEMERIS_TYPE":0,"CLASSIFICATION_TYPE":"U","NORAD_CAT_ID":52337,"ELEMENT_SET_NO":999,"REV_AT_EPOCH":18808,"BSTAR":1.1388887e-5,"MEAN_MOTION_DOT":-1.07e-6,"MEAN_MOTION_DDOT":0},{"OBJECT_NAME":"STARLINK-3792","OBJECT_ID":"2022-045J","EPOCH":"2025-09-07T21:39:06.827040","MEAN_MOTION":15.08842829,"ECCENTRICITY":0.00013574,"INCLINATION":53.2179,"RA_OF_ASC_NODE":309.329,"ARG_OF_PERICENTER":79.7763,"MEAN_ANOMALY":280.3383,"EPHEMERIS_TYPE":0,"CLASSIFICATION_TYPE":"U","NORAD_CAT_ID":52339,"ELEMENT_SET_NO":999,"REV_AT_EPOCH":18805,"BSTAR":2.055812e-5,"MEAN_MOTION_DOT":3.9e-7,"MEAN_MOTION_DDOT":0},{"OBJECT_NAME":"STARLINK-3818","OBJECT_ID":"2022-045K","EPOCH":"2025-09-08T03:56:45.652992","MEAN_MOTION":15.08838062,"ECCENTRICITY":0.00014239,"INCLINATION":53.2167,"RA_OF_ASC_NODE":298.5129,"ARG_OF_PERICENTER":83.1887,"MEAN_ANOMALY":276.9268,"EPHEMERIS_TYPE":0,"CLASSIFICATION_TYPE":"U","NORAD_CAT_ID":52340,"ELEMENT_SET_NO":999,"REV_AT_EPOCH":18821,"BSTAR":-0.00011940472,"MEAN_MOTION_DOT":-2.188e-5,"MEAN_MOTION_DDOT":0},{"OBJECT_NAME":"STARLINK-3843","OBJECT_ID":"2022-045L","EPOCH":"2025-09-08T04:48:24.985152","MEAN_MOTION":15.08835655,"ECCENTRICITY":0.00015051,"INCLINATION":53.219,"RA_OF_ASC_NODE":308.305,"ARG_OF_PERICENTER":103.2924,"MEAN_ANOMALY":256.8236,"EPHEMERIS_TYPE":0,"CLASSIFICATION_TYPE":"U","NORAD_CAT_ID":52341,"ELEMENT_SET_NO":999,"REV_AT_EPOCH":18809,"BSTAR":1.7717188e-5,"MEAN_MOTION_DOT":-6.0e-8,"MEAN_MOTION_DDOT":0},{"OBJECT_NAME":"STARLINK-3850","OBJECT_ID":"2022-045M","EPOCH":"2025-09-07T20:05:08.604960","MEAN_MOTION":15.08835798,"ECCENTRICITY":0.00013787,"INCLINATION":53.2165,"RA_OF_ASC_NODE":300.0992,"ARG_OF_PERICENTER":76.3095,"MEAN_ANOMALY":283.805,"EPHEMERIS_TYPE":0,"CLASSIFICATION_TYPE":"U","NORAD_CAT_ID":52342,"ELEMENT_SET_NO":999,"REV_AT_EPOCH":18817,"BSTAR":-0.00027091868,"MEAN_MOTION_DOT":-4.596e-5,"MEAN_MOTION_DDOT":0},{"OBJECT_NAME":"STARLINK-3849","OBJECT_ID":"2022-045N","EPOCH":"2025-09-08T04:05:58.135200","MEAN_MOTION":15.08875721,"ECCENTRICITY":0.00015459,"INCLINATION":53.2194,"RA_OF_ASC_NODE":308.4789,"ARG_OF_PERICENTER":73.7955,"MEAN_ANOMALY":286.3208,"EPHEMERIS_TYPE":0,"CLASSIFICATION_TYPE":"U","NORAD_CAT_ID":52343,"ELEMENT_SET_NO":999,"REV_AT_EPOCH":18809,"BSTAR":0.0002161473,"MEAN_MOTION_DOT":3.157e-5,"MEAN_MOTION_DDOT":0},{"OBJECT_NAME":"STARLINK-3851","OBJECT_ID":"2022-045P","EPOCH":"2025-09-08T03:46:10.583616","MEAN_MOTION":15.08832244,"ECCENTRICITY":0.00012861,"INCLINATION":53.2182,"RA_OF_ASC_NODE":298.6103,"ARG_OF_PERICENTER":93.8779,"MEAN_ANOMALY":266.236,"EPHEMERIS_TYPE":0,"CLASSIFICATION_TYPE":"U","NORAD_CAT_ID":52344,"ELEMENT_SET_NO":999,"REV_AT_EPOCH":18822,"BSTAR":-5.1980008e-5,"MEAN_MOTION_DOT":-1.115e-5,"MEAN_MOTION_DDOT":0},{"OBJECT_NAME":"STARLINK-3852","OBJECT_ID":"2022-045Q","EPOCH":"2025-09-07T20:27:43.494336","MEAN_MOTION":15.08837592,"ECCENTRICITY":0.00013539,"INCLINATION":53.218,"RA_OF_ASC_NODE":300.0746,"ARG_OF_PERICENTER":91.1074,"MEAN_ANOMALY":269.0074,"EPHEMERIS_TYPE":0,"CLASSIFICATION_TYPE":"U","NORAD_CAT_ID":52345,"ELEMENT_SET_NO":999,"REV_AT_EPOCH":18816,"BSTAR":-6.35483e-6,"MEAN_MOTION_DOT":-3.89e-6,"MEAN_MOTION_DDOT":0},{"OBJECT_NAME":"STARLINK-3812","OBJECT_ID":"2022-045R","EPOCH":"2025-09-08T03:36:56.149632","MEAN_MOTION":15.08834113,"ECCENTRICITY":0.00014266,"INCLINATION":53.2184,"RA_OF_ASC_NODE":298.5804,"ARG_OF_PERICENTER":92.3958,"MEAN_ANOMALY":267.7197,"EPHEMERIS_TYPE":0,"CLASSIFICATION_TYPE":"U","NORAD_CAT_ID":52346,"ELEMENT_SET_NO":999,"REV_AT_EPOCH":18822,"BSTAR":3.6517961e-5,"MEAN_MOTION_DOT":2.93e-6,"MEAN_MOTION_DDOT":0},{"OBJECT_NAME":"STARLINK-3826","OBJECT_ID":"2022-045S","EPOCH":"2025-09-08T03:52:50.166336","MEAN_MOTION":15.08831308,"ECCENTRICITY":0.0001356,"INCLINATION":53.2173,"RA_OF_ASC_NODE":298.5343,"ARG_OF_PERICENTER":91.3379,"MEAN_ANOMALY":268.7769,"EPHEMERIS_TYPE":0,"CLASSIFICATION_TYPE":"U","NORAD_CAT_ID":52347,"ELEMENT_SET_NO":999,"REV_AT_EPOCH":18822,"BSTAR":3.5176673e-5,"MEAN_MOTION_DOT":2.72e-6,"MEAN_MOTION_DDOT":0},{"OBJECT_NAME":"STARLINK-3829","OBJECT_ID":"2022-045T","EPOCH":"2025-09-08T06:35:44.078208","MEAN_MOTION":15.08841377,"ECCENTRICITY":0.00013098,"INCLINATION":53.2186,"RA_OF_ASC_NODE":298.0126,"ARG_OF_PERICENTER":95.4257,"MEAN_ANOMALY":264.6885,"EPHEMERIS_TYPE":0,"CLASSIFICATION_TYPE":"U","NORAD_CAT_ID":52348,"ELEMENT_SET_NO":999,"REV_AT_EPOCH":18824,"BSTAR":-6.3631537e-5,"MEAN_MOTION_DOT":-1.3e-5,"MEAN_MOTION_DDOT":0},{"OBJECT_NAME":"STARLINK-3819","OBJECT_ID":"2022-045U","EPOCH":"2025-09-07T08:36:13.686336","MEAN_MOTION":15.08840762,"ECCENTRICITY":0.00012762,"INCLINATION":53.2174,"RA_OF_ASC_NODE":302.1265,"ARG_OF_PERICENTER":90.8432,"MEAN_ANOMALY":269.2706,"EPHEMERIS_TYPE":0,"CLASSIFICATION_TYPE":"U","NORAD_CAT_ID":52349,"ELEMENT_SET_NO":999,"REV_AT_EPOCH":18810,"BSTAR":3.713398e-5,"MEAN_MOTION_DOT":3.03e-6,"MEAN_MOTION_DDOT":0},{"OBJECT_NAME":"STARLINK-3754","OBJECT_ID":"2022-045V","EPOCH":"2025-09-08T06:30:25.840224","MEAN_MOTION":15.08842789,"ECCENTRICITY":0.00015024,"INCLINATION":53.2172,"RA_OF_ASC_NODE":298.0277,"ARG_OF_PERICENTER":94.2704,"MEAN_ANOMALY":265.846,"EPHEMERIS_TYPE":0,"CLASSIFICATION_TYPE":"U","NORAD_CAT_ID":52350,"ELEMENT_SET_NO":999,"REV_AT_EPOCH":18824,"BSTAR":-0.00020104571,"MEAN_MOTION_DOT":-3.486e-5,"MEAN_MOTION_DDOT":0}]
